{
  "type": "FeatureCollection",
  "features": [
    {
      "type": "Feature",
      "id": 1,
      "geometry": {
        "type": "LineString",
        "coordinates": [
          [
            -120.64289916099995,
            37.824988563000034
          ],
          [
            -120.64490797799999,
            37.79721538900003
          ],
          [
            -120.62984184799996,
            37.79562803500005
          ],
          [
            -120.59368313499999,
            37.738460580000037
          ],
          [
            -120.59468754399995,
            37.679659102000073
          ]
        ]
      },
      "properties": {
        "OBJECTID": 1,
        "type": "BRANCH",
        "branch": 1,
        "fbus": 1,
        "tbus": 2,
        "length": 29.300000000000001,
        "Shape_Length": 0.16944826647582603
      }
    },
    {
      "type": "Feature",
      "id": 2,
      "geometry": {
        "type": "LineString",
        "coordinates": [
          [
            -120.64289916099995,
            37.824988563000034
          ],
          [
            -120.64490797799999,
            37.79721538900003
          ],
          [
            -120.62984184799996,
            37.79562803500005
          ],
          [
            -120.59368313499999,
            37.738460580000037
          ],
          [
            -120.54748033599998,
            37.74560892900007
          ],
          [
            -120.53140979799997,
            37.741637709000031
          ],
          [
            -120.51634366799999,
            37.756727210000065
          ],
          [
            -120.50027312899999,
            37.763873794000062
          ],
          [
            -120.46612323399995,
            37.748785751000071
          ]
        ]
      },
      "properties": {
        "OBJECTID": 2,
        "type": "BRANCH",
        "branch": 2,
        "fbus": 1,
        "tbus": 3,
        "length": 78.700000000000003,
        "Shape_Length": 0.25019035766428999
      }
    },
    {
      "type": "Feature",
      "id": 3,
      "geometry": {
        "type": "LineString",
        "coordinates": [
          [
            -120.59569195299997,
            37.678864168000075
          ],
          [
            -120.58363904899994,
            37.641492661000029
          ],
          [
            -120.52638775399998,
            37.637515861000054
          ],
          [
            -120.51031721499999,
            37.637515861000054
          ],
          [
            -120.48420258999994,
            37.664553899000055
          ],
          [
            -120.46813205099994,
            37.676479315000051
          ],
          [
            -120.46712764199998,
            37.707476427000074
          ],
          [
            -120.44804387799996,
            37.719394943000054
          ],
          [
            -120.42795570399994,
            37.701119101000074
          ],
          [
            -120.38978817499998,
            37.693966458000034
          ],
          [
            -120.36568236599999,
            37.680454028000042
          ],
          [
            -120.33755892299996,
            37.678864168000075
          ],
          [
            -120.33052806299997,
            37.686018268000055
          ],
          [
            -120.34127459699999,
            37.70564147400006
          ],
          [
            -120.38701088199997,
            37.775162298000055
          ]
        ]
      },
      "properties": {
        "OBJECTID": 3,
        "type": "BRANCH",
        "branch": 3,
        "fbus": 2,
        "tbus": 4,
        "length": 87.599999999999994,
        "Shape_Length": 0.46125506062106675
      }
    },
    {
      "type": "Feature",
      "id": 4,
      "geometry": {
        "type": "LineString",
        "coordinates": [
          [
            -120.46612323399995,
            37.748785751000071
          ],
          [
            -120.42722263899998,
            37.768209848000026
          ],
          [
            -120.38701088199997,
            37.775162298000055
          ]
        ]
      },
      "properties": {
        "OBJECTID": 4,
        "type": "BRANCH",
        "branch": 4,
        "fbus": 3,
        "tbus": 4,
        "length": 19.800000000000001,
        "Shape_Length": 0.08428883300995757
      }
    },
    {
      "type": "Feature",
      "id": 5,
      "geometry": {
        "type": "LineString",
        "coordinates": [
          [
            -120.59569195299997,
            37.678864168000075
          ],
          [
            -120.58363904899994,
            37.641492661000029
          ],
          [
            -120.52638775399998,
            37.637515861000054
          ],
          [
            -120.51031721499999,
            37.637515861000054
          ],
          [
            -120.48420258999994,
            37.664553899000055
          ],
          [
            -120.46813205099994,
            37.676479315000051
          ],
          [
            -120.46712764199998,
            37.707476427000074
          ],
          [
            -120.44804387799996,
            37.719394943000054
          ],
          [
            -120.42795570399994,
            37.701119101000074
          ],
          [
            -120.38978817499998,
            37.693966458000034
          ],
          [
            -120.36568236599999,
            37.680454028000042
          ],
          [
            -120.33755892299996,
            37.678864168000075
          ],
          [
            -120.33052806299997,
            37.686018268000055
          ],
          [
            -120.27270974599998,
            37.691273903000024
          ],
          [
            -120.16982267499998,
            37.643878638000047
          ]
        ]
      },
      "properties": {
        "OBJECTID": 5,
        "type": "BRANCH",
        "branch": 5,
        "fbus": 2,
        "tbus": 5,
        "length": 83.099999999999994,
        "Shape_Length": 0.52700097870757889
      }
    },
    {
      "type": "Feature",
      "id": 6,
      "geometry": {
        "type": "LineString",
        "coordinates": [
          [
            -120.59569195299997,
            37.678864168000075
          ],
          [
            -120.58363904899994,
            37.641492661000029
          ],
          [
            -120.52638775399998,
            37.637515861000054
          ],
          [
            -120.51031721499999,
            37.637515861000054
          ],
          [
            -120.48420258999994,
            37.664553899000055
          ],
          [
            -120.46813205099994,
            37.676479315000051
          ],
          [
            -120.46712764199998,
            37.707476427000074
          ],
          [
            -120.44804387799996,
            37.719394943000054
          ],
          [
            -120.42795570399994,
            37.701119101000074
          ],
          [
            -120.38978817499998,
            37.693966458000034
          ],
          [
            -120.36568236599999,
            37.680454028000042
          ],
          [
            -120.33755892299996,
            37.678864168000075
          ],
          [
            -120.33052806299997,
            37.686018268000055
          ],
          [
            -120.34127459699999,
            37.70564147400006
          ],
          [
            -120.32094193799998,
            37.714273972000058
          ],
          [
            -120.29899301399996,
            37.704013213000053
          ],
          [
            -120.23514160199994,
            37.70717052100008
          ],
          [
            -120.19722982599995,
            37.711906231000057
          ],
          [
            -120.18525768599994,
            37.738736204000077
          ],
          [
            -120.17886235299994,
            37.741637709000031
          ]
        ]
      },
      "properties": {
        "OBJECTID": 6,
        "type": "BRANCH",
        "branch": 6,
        "fbus": 2,
        "tbus": 6,
        "length": 89.200000000000003,
        "Shape_Length": 0.56289543534523356
      }
    },
    {
      "type": "Feature",
      "id": 7,
      "geometry": {
        "type": "LineString",
        "coordinates": [
          [
            -120.38701088199997,
            37.775162298000055
          ],
          [
            -120.34127459699999,
            37.70564147400006
          ],
          [
            -120.32094193799998,
            37.714273972000058
          ],
          [
            -120.29899301399996,
            37.704013213000053
          ],
          [
            -120.23514160199994,
            37.70717052100008
          ],
          [
            -120.19722982599995,
            37.711906231000057
          ],
          [
            -120.18525768599994,
            37.738736204000077
          ],
          [
            -120.17886235299994,
            37.741637709000031
          ]
        ]
      },
      "properties": {
        "OBJECTID": 7,
        "type": "BRANCH",
        "branch": 7,
        "fbus": 4,
        "tbus": 6,
        "length": 19.300000000000001,
        "Shape_Length": 0.26807297652125639
      }
    },
    {
      "type": "Feature",
      "id": 8,
      "geometry": {
        "type": "LineString",
        "coordinates": [
          [
            -120.16982267499998,
            37.643878638000047
          ],
          [
            -120.14514724099996,
            37.658410957000058
          ],
          [
            -120.15754875199997,
            37.665773994000062
          ],
          [
            -120.15754875199997,
            37.675317584000027
          ],
          [
            -120.16684988499998,
            37.681315784000049
          ],
          [
            -120.16409399399998,
            37.692220360000078
          ],
          [
            -120.14273583599999,
            37.686768272000052
          ],
          [
            -120.11069859999998,
            37.682406314000048
          ],
          [
            -120.06625985299996,
            37.65732007400004
          ]
        ]
      },
      "properties": {
        "OBJECTID": 8,
        "type": "BRANCH",
        "branch": 8,
        "fbus": 5,
        "tbus": 7,
        "length": 66,
        "Shape_Length": 0.18032438164124631
      }
    },
    {
      "type": "Feature",
      "id": 9,
      "geometry": {
        "type": "LineString",
        "coordinates": [
          [
            -120.17886235299994,
            37.741637709000031
          ],
          [
            -120.17752210399999,
            37.739058020000073
          ],
          [
            -120.15676941799995,
            37.728110209000079
          ],
          [
            -120.15407721399998,
            37.706813876000069
          ],
          [
            -120.14273583599999,
            37.686768272000052
          ],
          [
            -120.11069859999998,
            37.682406314000048
          ],
          [
            -120.06625985299996,
            37.65732007400004
          ]
        ]
      },
      "properties": {
        "OBJECTID": 9,
        "type": "BRANCH",
        "branch": 9,
        "fbus": 6,
        "tbus": 7,
        "length": 41.200000000000003,
        "Shape_Length": 0.15423122511844578
      }
    },
    {
      "type": "Feature",
      "id": 10,
      "geometry": {
        "type": "LineString",
        "coordinates": [
          [
            -120.17886235299994,
            37.741637709000031
          ],
          [
            -120.17752210399999,
            37.739058020000073
          ],
          [
            -120.15676941799995,
            37.728110209000079
          ],
          [
            -120.13890078599997,
            37.738106300000027
          ],
          [
            -120.11758238599998,
            37.750253661000045
          ],
          [
            -120.10128008099997,
            37.753971842000055
          ],
          [
            -120.08123453999997,
            37.75704292000006
          ],
          [
            -120.05519471699995,
            37.742816738000045
          ],
          [
            -120.06213485299998,
            37.700296654000056
          ],
          [
            -120.03567364999998,
            37.688875787000029
          ]
        ]
      },
      "properties": {
        "OBJECTID": 10,
        "type": "BRANCH",
        "branch": 10,
        "fbus": 6,
        "tbus": 8,
        "length": 19.5,
        "Shape_Length": 0.20995767019494507
      }
    },
    {
      "type": "Feature",
      "id": 11,
      "geometry": {
        "type": "LineString",
        "coordinates": [
          [
            -120.39429598399994,
            37.775379592000036
          ],
          [
            -120.39925851799995,
            37.785269047000043
          ],
          [
            -120.42841285299994,
            37.788744429000076
          ],
          [
            -120.43278398299998,
            37.81014928500008
          ],
          [
            -120.42933890299997,
            37.832056312000077
          ],
          [
            -120.41297476999995,
            37.851780677000079
          ],
          [
            -120.42658283799994,
            37.863884744000075
          ],
          [
            -120.43627729099995,
            37.87361977300003
          ],
          [
            -120.44874223299996,
            37.877518305000081
          ],
          [
            -120.46567574099998,
            37.881045371000027
          ],
          [
            -120.48025737199998,
            37.882901653000033
          ],
          [
            -120.48872412499998,
            37.88921266300008
          ],
          [
            -120.50448169499998,
            37.880117212000073
          ],
          [
            -120.51005062599995,
            37.867057763000048
          ]
        ]
      },
      "properties": {
        "OBJECTID": 11,
        "type": "BRANCH",
        "branch": 17,
        "fbus": 12,
        "tbus": 14,
        "length": 16.100000000000001,
        "Shape_Length": 0.2300363079109736
      }
    },
    {
      "type": "Feature",
      "id": 13,
      "geometry": {
        "type": "LineString",
        "coordinates": [
          [
            -120.39429598399994,
            37.775379592000036
          ],
          [
            -120.39925851799995,
            37.785269047000043
          ],
          [
            -120.42841285299994,
            37.788744429000076
          ],
          [
            -120.43278398299998,
            37.81014928500008
          ],
          [
            -120.42933890299997,
            37.832056312000077
          ],
          [
            -120.41297476999995,
            37.851780677000079
          ],
          [
            -120.42658283799994,
            37.863884744000075
          ],
          [
            -120.41263026199999,
            37.874219228000072
          ],
          [
            -120.40436206799995,
            37.878434193000032
          ]
        ]
      },
      "properties": {
        "OBJECTID": 13,
        "type": "BRANCH",
        "branch": 18,
        "fbus": 12,
        "tbus": 15,
        "length": 8.4000000000000004,
        "Shape_Length": 0.15493307799257638
      }
    },
    {
      "type": "Feature",
      "id": 14,
      "geometry": {
        "type": "LineString",
        "coordinates": [
          [
            -120.39429598399994,
            37.775379592000036
          ],
          [
            -120.39925851799995,
            37.785269047000043
          ],
          [
            -120.42841285299994,
            37.788744429000076
          ],
          [
            -120.43278398299998,
            37.81014928500008
          ],
          [
            -120.42933890299997,
            37.832056312000077
          ],
          [
            -120.41297476999995,
            37.851780677000079
          ],
          [
            -120.39292787499994,
            37.849991319000026
          ],
          [
            -120.37670964999995,
            37.839607155000067
          ],
          [
            -120.36903886799996,
            37.839434073000064
          ],
          [
            -120.35106731999997,
            37.829913949000058
          ],
          [
            -120.32608248699995,
            37.821431350000069
          ],
          [
            -120.30742666299994,
            37.814674032000028
          ]
        ]
      },
      "properties": {
        "OBJECTID": 14,
        "type": "BRANCH",
        "branch": 19,
        "fbus": 12,
        "tbus": 16,
        "length": 12.4,
        "Shape_Length": 0.22369906556666122
      }
    },
    {
      "type": "Feature",
      "id": 15,
      "geometry": {
        "type": "LineString",
        "coordinates": [
          [
            -120.51005062599995,
            37.867057763000048
          ],
          [
            -120.50448169499998,
            37.880117212000073
          ],
          [
            -120.48872412499998,
            37.88921266300008
          ],
          [
            -120.48025737199998,
            37.882901653000033
          ],
          [
            -120.46567574099998,
            37.881045371000027
          ],
          [
            -120.44874223299996,
            37.877518305000081
          ],
          [
            -120.43627729099995,
            37.87361977300003
          ],
          [
            -120.42658283799994,
            37.863884744000075
          ],
          [
            -120.41263026199999,
            37.874219228000072
          ],
          [
            -120.40436206799995,
            37.878434193000032
          ]
        ]
      },
      "properties": {
        "OBJECTID": 15,
        "type": "BRANCH",
        "branch": 20,
        "fbus": 14,
        "tbus": 15,
        "length": 20.5,
        "Shape_Length": 0.12839049286599941
      }
    },
    {
      "type": "Feature",
      "id": 16,
      "geometry": {
        "type": "LineString",
        "coordinates": [
          [
            -120.30742666299994,
            37.814674032000028
          ],
          [
            -120.29815506399996,
            37.815575326000044
          ],
          [
            -120.29055476999997,
            37.819133251000039
          ],
          [
            -120.28295447699998,
            37.82157922500005
          ],
          [
            -120.27296149799997,
            37.817243125000061
          ],
          [
            -120.26902060399999,
            37.814797007000038
          ],
          [
            -120.26085732599995,
            37.822468650000076
          ],
          [
            -120.23425629699994,
            37.837364927000067
          ],
          [
            -120.22510779499999,
            37.838587622000034
          ]
        ]
      },
      "properties": {
        "OBJECTID": 16,
        "type": "BRANCH",
        "branch": 21,
        "fbus": 16,
        "tbus": 17,
        "length": 11.5,
        "Shape_Length": 0.092143015372301185
      }
    },
    {
      "type": "Feature",
      "id": 17,
      "geometry": {
        "type": "LineString",
        "coordinates": [
          [
            -120.40436206799995,
            37.878434193000032
          ],
          [
            -120.38806483099995,
            37.88968716100004
          ],
          [
            -120.39364540199995,
            37.913381905000051
          ],
          [
            -120.38168703499997,
            37.918203794000078
          ],
          [
            -120.35909900899998,
            37.945452009000064
          ],
          [
            -120.34554619399995,
            37.947757164000052
          ]
        ]
      },
      "properties": {
        "OBJECTID": 17,
        "type": "BRANCH",
        "branch": 22,
        "fbus": 15,
        "tbus": 18,
        "length": 13.800000000000001,
        "Shape_Length": 0.10618247220824185
      }
    },
    {
      "type": "Feature",
      "id": 18,
      "geometry": {
        "type": "LineString",
        "coordinates": [
          [
            -120.34554619399995,
            37.947757164000052
          ],
          [
            -120.31118072199996,
            37.955219763000059
          ],
          [
            -120.28283784299998,
            37.96488174600006
          ],
          [
            -120.26131503699997,
            37.963280944000076
          ],
          [
            -120.26224750599999,
            37.948488109000039
          ]
        ]
      },
      "properties": {
        "OBJECTID": 18,
        "type": "BRANCH",
        "branch": 23,
        "fbus": 18,
        "tbus": 19,
        "length": 8.1999999999999993,
        "Shape_Length": 0.1015153492400985
      }
    },
    {
      "type": "Feature",
      "id": 19,
      "geometry": {
        "type": "LineString",
        "coordinates": [
          [
            -120.26224750599999,
            37.948488109000039
          ],
          [
            -120.26218345399997,
            37.941642250000029
          ],
          [
            -120.25784500299994,
            37.937793001000045
          ],
          [
            -120.26370191099994,
            37.916575747000024
          ],
          [
            -120.26793190099994,
            37.909302296000078
          ],
          [
            -120.27194496799996,
            37.889446393000071
          ]
        ]
      },
      "properties": {
        "OBJECTID": 19,
        "type": "BRANCH",
        "branch": 24,
        "fbus": 19,
        "tbus": 29,
        "length": 4.4000000000000012,
        "Shape_Length": 0.063328273725435119
      }
    },
    {
      "type": "Feature",
      "id": 20,
      "geometry": {
        "type": "LineString",
        "coordinates": [
          [
            -120.17386037999995,
            37.741784647000031
          ],
          [
            -120.17389248399996,
            37.754737410000075
          ],
          [
            -120.19498857199994,
            37.76872944400003
          ],
          [
            -120.19870186499998,
            37.777551874000039
          ],
          [
            -120.21580412499998,
            37.788963727000066
          ],
          [
            -120.21682092599997,
            37.799115724000046
          ],
          [
            -120.223280424,
            37.801280074000033
          ],
          [
            -120.23903735799996,
            37.815099491000069
          ],
          [
            -120.23052368999998,
            37.822352386000034
          ],
          [
            -120.23648877099998,
            37.836162798000032
          ],
          [
            -120.24306315899997,
            37.857226480000065
          ],
          [
            -120.28872783299994,
            37.867119660000071
          ],
          [
            -120.29410017199996,
            37.875023141000042
          ],
          [
            -120.29239079099995,
            37.88205845400006
          ],
          [
            -120.27194496799996,
            37.889446393000071
          ]
        ]
      },
      "properties": {
        "OBJECTID": 20,
        "type": "BRANCH",
        "branch": 25,
        "fbus": 10,
        "tbus": 20,
        "length": 12.699999999999999,
        "Shape_Length": 0.23992701552637832
      }
    },
    {
      "type": "Feature",
      "id": 21,
      "geometry": {
        "type": "LineString",
        "coordinates": [
          [
            -120.17386037999995,
            37.741784647000031
          ],
          [
            -120.17389248399996,
            37.754737410000075
          ],
          [
            -120.19498857199994,
            37.76872944400003
          ],
          [
            -120.19870186499998,
            37.777551874000039
          ],
          [
            -120.21580412499998,
            37.788963727000066
          ],
          [
            -120.21682092599997,
            37.799115724000046
          ],
          [
            -120.223280424,
            37.801280074000033
          ],
          [
            -120.23903735799996,
            37.815099491000069
          ],
          [
            -120.23052368999998,
            37.822352386000034
          ],
          [
            -120.23648877099998,
            37.836162798000032
          ],
          [
            -120.23425629699994,
            37.837364927000067
          ],
          [
            -120.22510779499999,
            37.838587622000034
          ]
        ]
      },
      "properties": {
        "OBJECTID": 21,
        "type": "BRANCH",
        "branch": 26,
        "fbus": 10,
        "tbus": 17,
        "length": 47,
        "Shape_Length": 0.14436633359908663
      }
    },
    {
      "type": "Feature",
      "id": 22,
      "geometry": {
        "type": "LineString",
        "coordinates": [
          [
            -120.17386037999995,
            37.741784647000031
          ],
          [
            -120.17389248399996,
            37.754737410000075
          ],
          [
            -120.19498857199994,
            37.76872944400003
          ],
          [
            -120.19870186499998,
            37.777551874000039
          ],
          [
            -120.19579919799997,
            37.781316471000025
          ],
          [
            -120.17890398799995,
            37.781824157000074
          ],
          [
            -120.17384533599994,
            37.795729292000033
          ],
          [
            -120.16820017399999,
            37.796366548000037
          ],
          [
            -120.16578081899996,
            37.799784463000037
          ],
          [
            -120.15808286999999,
            37.800305826000056
          ]
        ]
      },
      "properties": {
        "OBJECTID": 22,
        "type": "BRANCH",
        "branch": 27,
        "fbus": 10,
        "tbus": 21,
        "length": 4.5999999999999996,
        "Shape_Length": 0.10187667943830214
      }
    },
    {
      "type": "Feature",
      "id": 23,
      "geometry": {
        "type": "LineString",
        "coordinates": [
          [
            -120.17386037999995,
            37.741784647000031
          ],
          [
            -120.17389248399996,
            37.754737410000075
          ],
          [
            -120.19498857199994,
            37.76872944400003
          ],
          [
            -120.19870186499998,
            37.777551874000039
          ],
          [
            -120.19579919799997,
            37.781316471000025
          ],
          [
            -120.17890398799995,
            37.781824157000074
          ],
          [
            -120.17384533599994,
            37.795729292000033
          ],
          [
            -120.16820017399999,
            37.796366548000037
          ],
          [
            -120.16578081899996,
            37.799784463000037
          ],
          [
            -120.16374106599994,
            37.804479280000066
          ],
          [
            -120.16758764699995,
            37.822619656000029
          ],
          [
            -120.15560914499997,
            37.820648513000037
          ],
          [
            -120.14569956399998,
            37.821328880000067
          ],
          [
            -120.13211649899995,
            37.818952996000064
          ]
        ]
      },
      "properties": {
        "OBJECTID": 23,
        "type": "BRANCH",
        "branch": 28,
        "fbus": 10,
        "tbus": 22,
        "length": 9.4000000000000004,
        "Shape_Length": 0.15368539038562273
      }
    },
    {
      "type": "Feature",
      "id": 25,
      "geometry": {
        "type": "LineString",
        "coordinates": [
          [
            -120.15808286999999,
            37.800305826000056
          ],
          [
            -120.16578081899996,
            37.799784463000037
          ],
          [
            -120.16374106599994,
            37.804479280000066
          ],
          [
            -120.16758764699995,
            37.822619656000029
          ],
          [
            -120.15560914499997,
            37.820648513000037
          ],
          [
            -120.14569956399998,
            37.821328880000067
          ],
          [
            -120.13211649899995,
            37.818952996000064
          ]
        ]
      },
      "properties": {
        "OBJECTID": 25,
        "type": "BRANCH",
        "branch": 29,
        "fbus": 21,
        "tbus": 22,
        "length": 1.5,
        "Shape_Length": 0.067239879170629707
      }
    },
    {
      "type": "Feature",
      "id": 26,
      "geometry": {
        "type": "LineString",
        "coordinates": [
          [
            -120.40436206799995,
            37.878434193000032
          ],
          [
            -120.38806483099995,
            37.88968716100004
          ],
          [
            -120.39364540199995,
            37.913381905000051
          ],
          [
            -120.38168703499997,
            37.918203794000078
          ],
          [
            -120.35909900899998,
            37.945452009000064
          ],
          [
            -120.37251121799994,
            37.956257005000055
          ],
          [
            -120.37391097599999,
            37.96812062500004
          ],
          [
            -120.35466430799994,
            37.976120589000061
          ],
          [
            -120.32561933599999,
            37.98136147200006
          ],
          [
            -120.29307496999996,
            37.981637298000066
          ],
          [
            -120.26822927199999,
            37.995703027000047
          ]
        ]
      },
      "properties": {
        "OBJECTID": 26,
        "type": "BRANCH",
        "branch": 30,
        "fbus": 15,
        "tbus": 23,
        "length": 12.9,
        "Shape_Length": 0.23305754847094648
      }
    },
    {
      "type": "Feature",
      "id": 27,
      "geometry": {
        "type": "LineString",
        "coordinates": [
          [
            -120.13211649899995,
            37.818952996000064
          ],
          [
            -120.11993906899994,
            37.81380862900005
          ],
          [
            -120.10912059999998,
            37.81754770200007
          ],
          [
            -120.12969372899994,
            37.841750274000049
          ],
          [
            -120.16331923499996,
            37.850340883000058
          ],
          [
            -120.19476897399994,
            37.859711315000027
          ],
          [
            -120.22206497299999,
            37.865176850000068
          ],
          [
            -120.22246056799997,
            37.872671782000054
          ],
          [
            -120.23235042299996,
            37.882976069000051
          ],
          [
            -120.23076804599998,
            37.888439879000032
          ],
          [
            -120.21514207499996,
            37.897493299000075
          ],
          [
            -120.20268085799995,
            37.89983452000007
          ],
          [
            -120.18388439599994,
            37.913792492000027
          ]
        ]
      },
      "properties": {
        "OBJECTID": 27,
        "type": "BRANCH",
        "branch": 31,
        "fbus": 22,
        "tbus": 24,
        "length": 13.1,
        "Shape_Length": 0.23341705792056797
      }
    },
    {
      "type": "Feature",
      "id": 28,
      "geometry": {
        "type": "LineString",
        "coordinates": [
          [
            -120.26822927199999,
            37.995703027000047
          ],
          [
            -120.25233219499995,
            37.992526081000051
          ],
          [
            -120.24664164799998,
            37.977858535000053
          ],
          [
            -120.22280286999995,
            37.976161274000049
          ],
          [
            -120.21495914299999,
            37.972039192000068
          ],
          [
            -120.18712160199999,
            37.939539381000031
          ],
          [
            -120.18404563099995,
            37.925831793000043
          ],
          [
            -120.18942858099996,
            37.922070858000041
          ],
          [
            -120.18388439599994,
            37.913792492000027
          ]
        ]
      },
      "properties": {
        "OBJECTID": 28,
        "type": "BRANCH",
        "branch": 32,
        "fbus": 23,
        "tbus": 24,
        "length": 17.100000000000001,
        "Shape_Length": 0.13807483000972307
      }
    },
    {
      "type": "Feature",
      "id": 29,
      "geometry": {
        "type": "LineString",
        "coordinates": [
          [
            -120.18388439599994,
            37.913792492000027
          ],
          [
            -120.18942858099996,
            37.922070858000041
          ],
          [
            -120.18404563099995,
            37.925831793000043
          ],
          [
            -120.17559127999999,
            37.926139266000064
          ],
          [
            -120.16766059599996,
            37.933005017000028
          ],
          [
            -120.15818246099997,
            37.934683214000074
          ],
          [
            -120.16533941999995,
            37.94566683000005
          ],
          [
            -120.17365696699994,
            37.956953836000025
          ],
          [
            -120.16475912599998,
            37.966866667000033
          ],
          [
            -120.14038677999997,
            37.972661241000026
          ],
          [
            -120.12800717499999,
            37.971288883000057
          ]
        ]
      },
      "properties": {
        "OBJECTID": 29,
        "type": "BRANCH",
        "branch": 23,
        "fbus": 24,
        "tbus": 25,
        "length": 22.600000000000001,
        "Shape_Length": 0.12306316083166931
      }
    },
    {
      "type": "Feature",
      "id": 30,
      "geometry": {
        "type": "LineString",
        "coordinates": [
          [
            -120.12800717499999,
            37.971288883000057
          ],
          [
            -120.11913364299994,
            37.981550093000067
          ],
          [
            -120.09458973299996,
            37.979400536000071
          ],
          [
            -120.09911652899996,
            37.953470053000046
          ],
          [
            -120.11314000399994,
            37.935652779000065
          ],
          [
            -120.11443847399994,
            37.922747918000027
          ],
          [
            -120.11002367599997,
            37.91537269500003
          ],
          [
            -120.09389587199996,
            37.911380766000036
          ],
          [
            -120.10457010299996,
            37.892217886000026
          ]
        ]
      },
      "properties": {
        "OBJECTID": 30,
        "type": "BRANCH",
        "branch": 34,
        "fbus": 25,
        "tbus": 26,
        "length": 28.399999999999999,
        "Shape_Length": 0.14731578053232536
      }
    },
    {
      "type": "Feature",
      "id": 31,
      "geometry": {
        "type": "LineString",
        "coordinates": [
          [
            -120.12800717499999,
            37.971288883000057
          ],
          [
            -120.11913364299994,
            37.981550093000067
          ],
          [
            -120.13981787999995,
            37.993364482000061
          ],
          [
            -120.14637648699994,
            38.006380844000034
          ],
          [
            -120.12184244199995,
            38.017098465000061
          ],
          [
            -120.11654159399995,
            38.029099839000025
          ]
        ]
      },
      "properties": {
        "OBJECTID": 31,
        "type": "BRANCH",
        "branch": 35,
        "fbus": 25,
        "tbus": 27,
        "length": 3.7000000000000002,
        "Shape_Length": 0.091854502300689395
      }
    },
    {
      "type": "Feature",
      "id": 32,
      "geometry": {
        "type": "LineString",
        "coordinates": [
          [
            -120.11654159399995,
            38.029099839000025
          ],
          [
            -120.13816070899998,
            38.037567933000048
          ],
          [
            -120.19636965399997,
            38.029878933000077
          ],
          [
            -120.20198794399994,
            38.056803427000034
          ]
        ]
      },
      "properties": {
        "OBJECTID": 32,
        "type": "BRANCH",
        "branch": 37,
        "fbus": 27,
        "tbus": 29,
        "length": 27.399999999999999,
        "Shape_Length": 0.10943742282058175
      }
    },
    {
      "type": "Feature",
      "id": 33,
      "geometry": {
        "type": "LineString",
        "coordinates": [
          [
            -120.11654159399995,
            38.029099839000025
          ],
          [
            -120.13816070899998,
            38.037567933000048
          ],
          [
            -120.19636965399997,
            38.029878933000077
          ],
          [
            -120.20198794399994,
            38.056803427000034
          ],
          [
            -120.20945500099998,
            38.056306000000063
          ],
          [
            -120.23273399999999,
            38.048160999000061
          ],
          [
            -120.24071799999996,
            38.046524000000034
          ],
          [
            -120.24844200099994,
            38.027696000000049
          ],
          [
            -120.27244647199996,
            38.033068967000077
          ],
          [
            -120.27808307899994,
            38.040794796000057
          ],
          [
            -120.29660335699998,
            38.042178440000043
          ],
          [
            -120.31922298599994,
            38.039930005000031
          ]
        ]
      },
      "properties": {
        "OBJECTID": 33,
        "type": "BRANCH",
        "branch": 38,
        "fbus": 27,
        "tbus": 30,
        "length": 39.799999999999997,
        "Shape_Length": 0.24554957295395652
      }
    },
    {
      "type": "Feature",
      "id": 34,
      "geometry": {
        "type": "LineString",
        "coordinates": [
          [
            -120.20198794399994,
            38.056803427000034
          ],
          [
            -120.20945500099998,
            38.056306000000063
          ],
          [
            -120.23273399999999,
            38.048160999000061
          ],
          [
            -120.24071799999996,
            38.046524000000034
          ],
          [
            -120.24844200099994,
            38.027696000000049
          ],
          [
            -120.27244647199996,
            38.033068967000077
          ],
          [
            -120.27808307899994,
            38.040794796000057
          ],
          [
            -120.29660335699998,
            38.042178440000043
          ],
          [
            -120.31922298599994,
            38.039930005000031
          ]
        ]
      },
      "properties": {
        "OBJECTID": 34,
        "type": "BRANCH",
        "branch": 39,
        "fbus": 29,
        "tbus": 30,
        "length": 29.899999999999999,
        "Shape_Length": 0.13611215013337477
      }
    },
    {
      "type": "Feature",
      "id": 35,
      "geometry": {
        "type": "LineString",
        "coordinates": [
          [
            -120.03567364999998,
            37.688875787000029
          ],
          [
            -120.06213485299998,
            37.700296654000056
          ],
          [
            -120.05519471699995,
            37.742816738000045
          ],
          [
            -120.08123453999997,
            37.75704292000006
          ],
          [
            -120.07556301299996,
            37.78668917300007
          ],
          [
            -120.05970312599999,
            37.817070744000034
          ],
          [
            -120.05083352199995,
            37.825543527000036
          ],
          [
            -120.04700964599999,
            37.835708007000051
          ],
          [
            -120.04123279799995,
            37.85515566600003
          ],
          [
            -120.04670560099999,
            37.883357659000069
          ],
          [
            -120.05483064599997,
            37.918135569000071
          ],
          [
            -120.07114573699999,
            37.936520137000059
          ],
          [
            -120.08070171899999,
            37.958391781000046
          ],
          [
            -120.08559624599997,
            37.993483076000075
          ],
          [
            -120.07598556899995,
            38.019458864000057
          ],
          [
            -120.08674703699995,
            38.025909157000058
          ],
          [
            -120.09828130599999,
            38.023457220000068
          ],
          [
            -120.11479096299996,
            38.029099839000025
          ]
        ]
      },
      "properties": {
        "OBJECTID": 35,
        "type": "BRANCH",
        "branch": 40,
        "fbus": 8,
        "tbus": 28,
        "length": 99,
        "Shape_Length": 0.4272495634782954
      }
    },
    {
      "type": "Feature",
      "id": 36,
      "geometry": {
        "type": "LineString",
        "coordinates": [
          [
            -120.17886235299994,
            37.741637709000031
          ],
          [
            -120.17752210399999,
            37.739058020000073
          ],
          [
            -120.15676941799995,
            37.728110209000079
          ],
          [
            -120.11758238599998,
            37.750253661000045
          ],
          [
            -120.10128008099997,
            37.753971842000055
          ],
          [
            -120.08123453999997,
            37.75704292000006
          ],
          [
            -120.07556301299996,
            37.78668917300007
          ],
          [
            -120.05970312599999,
            37.817070744000034
          ],
          [
            -120.05083352199995,
            37.825543527000036
          ],
          [
            -120.04700964599999,
            37.835708007000051
          ],
          [
            -120.04123279799995,
            37.85515566600003
          ],
          [
            -120.05483064599997,
            37.918135569000071
          ],
          [
            -120.07114573699999,
            37.936520137000059
          ],
          [
            -120.08070171899999,
            37.958391781000046
          ],
          [
            -120.08559624599997,
            37.993483076000075
          ],
          [
            -120.07598556899995,
            38.019458864000057
          ],
          [
            -120.08674703699995,
            38.025909157000058
          ],
          [
            -120.09828130599999,
            38.023457220000068
          ],
          [
            -120.11479096299996,
            38.029099839000025
          ]
        ]
      },
      "properties": {
        "OBJECTID": 36,
        "type": "BRANCH",
        "branch": 41,
        "fbus": 6,
        "tbus": 28,
        "length": 27.600000000000001,
        "Shape_Length": 0.43404366505519315
      }
    },
    {
      "type": "Feature",
      "id": 101,
      "geometry": {
        "type": "Point",
        "coordinates": [
          -120.64289916099995,
          37.824988563000034
        ]
      },
      "properties": {
        "OBJECTID": 101,
        "type": "GEN",
        "bus": 1
      }
    },
    {
      "type": "Feature",
      "id": 102,
      "geometry": {
        "type": "Point",
        "coordinates": [
          -120.59770076999996,
          37.682838753000055
        ]
      },
      "properties": {
        "OBJECTID": 102,
        "type": "SUBSTATION",
        "bus": 2
      }
    },
    {
      "type": "Feature",
      "id": 103,
      "geometry": {
        "type": "Point",
        "coordinates": [
          -120.40083666999999,
          37.775783233000027
        ]
      },
      "properties": {
        "OBJECTID": 103,
        "type": "SUBSTATION",
        "bus": 13
      }
    },
    {
      "type": "Feature",
      "id": 104,
      "geometry": {
        "type": "Point",
        "coordinates": [
          -120.13211649899995,
          37.818952996000064
        ]
      },
      "properties": {
        "OBJECTID": 104,
        "type": "SUBSTATION",
        "bus": 22
      }
    },
    {
      "type": "Feature",
      "id": 105,
      "geometry": {
        "type": "Point",
        "coordinates": [
          -120.26822927199999,
          37.995703027000047
        ]
      },
      "properties": {
        "OBJECTID": 105,
        "type": "SUBSTATION",
        "bus": 23
      }
    },
    {
      "type": "Feature",
      "id": 106,
      "geometry": {
        "type": "Point",
        "coordinates": [
          -120.11654159399995,
          38.029099839000025
        ]
      },
      "properties": {
        "OBJECTID": 106,
        "type": "SUBSTATION",
        "bus": 27
      }
    },
    {
      "type": "Feature",
      "id": 107,
      "geometry": {
        "type": "Point",
        "coordinates": [
          -120.46612323399995,
          37.748785751000071
        ]
      },
      "properties": {
        "OBJECTID": 107,
        "type": "NODE",
        "bus": 3
      }
    },
    {
      "type": "Feature",
      "id": 108,
      "geometry": {
        "type": "Point",
        "coordinates": [
          -120.38701088199997,
          37.775162298000055
        ]
      },
      "properties": {
        "OBJECTID": 108,
        "type": "NODE",
        "bus": 4
      }
    },
    {
      "type": "Feature",
      "id": 109,
      "geometry": {
        "type": "Point",
        "coordinates": [
          -120.16982267499998,
          37.643878638000047
        ]
      },
      "properties": {
        "OBJECTID": 109,
        "type": "NODE",
        "bus": 5
      }
    },
    {
      "type": "Feature",
      "id": 110,
      "geometry": {
        "type": "Point",
        "coordinates": [
          -120.17886235299994,
          37.741637709000031
        ]
      },
      "properties": {
        "OBJECTID": 110,
        "type": "NODE",
        "bus": 6
      }
    },
    {
      "type": "Feature",
      "id": 111,
      "geometry": {
        "type": "Point",
        "coordinates": [
          -120.06625985299996,
          37.65732007400004
        ]
      },
      "properties": {
        "OBJECTID": 111,
        "type": "NODE",
        "bus": 7
      }
    },
    {
      "type": "Feature",
      "id": 112,
      "geometry": {
        "type": "Point",
        "coordinates": [
          -120.03567364999998,
          37.688875787000029
        ]
      },
      "properties": {
        "OBJECTID": 112,
        "type": "NODE",
        "bus": 8
      }
    },
    {
      "type": "Feature",
      "id": 113,
      "geometry": {
        "type": "Point",
        "coordinates": [
          -120.17716217299994,
          37.741879096000048
        ]
      },
      "properties": {
        "OBJECTID": 113,
        "type": "NODE",
        "bus": 9
      }
    },
    {
      "type": "Feature",
      "id": 114,
      "geometry": {
        "type": "Point",
        "coordinates": [
          -120.17386037999995,
          37.741784647000031
        ]
      },
      "properties": {
        "OBJECTID": 114,
        "type": "NODE",
        "bus": 10
      }
    },
    {
      "type": "Feature",
      "id": 115,
      "geometry": {
        "type": "Point",
        "coordinates": [
          -120.17569543299999,
          37.741778077000049
        ]
      },
      "properties": {
        "OBJECTID": 115,
        "type": "NODE",
        "bus": 11
      }
    },
    {
      "type": "Feature",
      "id": 116,
      "geometry": {
        "type": "Point",
        "coordinates": [
          -120.39429598399994,
          37.775379592000036
        ]
      },
      "properties": {
        "OBJECTID": 116,
        "type": "NODE",
        "bus": 12
      }
    },
    {
      "type": "Feature",
      "id": 117,
      "geometry": {
        "type": "Point",
        "coordinates": [
          -120.51005062599995,
          37.867057763000048
        ]
      },
      "properties": {
        "OBJECTID": 117,
        "type": "NODE",
        "bus": 14
      }
    },
    {
      "type": "Feature",
      "id": 118,
      "geometry": {
        "type": "Point",
        "coordinates": [
          -120.40436206799995,
          37.878434193000032
        ]
      },
      "properties": {
        "OBJECTID": 118,
        "type": "NODE",
        "bus": 15
      }
    },
    {
      "type": "Feature",
      "id": 119,
      "geometry": {
        "type": "Point",
        "coordinates": [
          -120.30742666299994,
          37.814674032000028
        ]
      },
      "properties": {
        "OBJECTID": 119,
        "type": "NODE",
        "bus": 16
      }
    },
    {
      "type": "Feature",
      "id": 120,
      "geometry": {
        "type": "Point",
        "coordinates": [
          -120.22510779499999,
          37.838587622000034
        ]
      },
      "properties": {
        "OBJECTID": 120,
        "type": "NODE",
        "bus": 17
      }
    },
    {
      "type": "Feature",
      "id": 121,
      "geometry": {
        "type": "Point",
        "coordinates": [
          -120.34554619399995,
          37.947757164000052
        ]
      },
      "properties": {
        "OBJECTID": 121,
        "type": "NODE",
        "bus": 18
      }
    },
    {
      "type": "Feature",
      "id": 122,
      "geometry": {
        "type": "Point",
        "coordinates": [
          -120.26224750599999,
          37.948488109000039
        ]
      },
      "properties": {
        "OBJECTID": 122,
        "type": "NODE",
        "bus": 19
      }
    },
    {
      "type": "Feature",
      "id": 123,
      "geometry": {
        "type": "Point",
        "coordinates": [
          -120.27194496799996,
          37.889446393000071
        ]
      },
      "properties": {
        "OBJECTID": 123,
        "type": "NODE",
        "bus": 20
      }
    },
    {
      "type": "Feature",
      "id": 124,
      "geometry": {
        "type": "Point",
        "coordinates": [
          -120.15808286999999,
          37.800305826000056
        ]
      },
      "properties": {
        "OBJECTID": 124,
        "type": "NODE",
        "bus": 21
      }
    },
    {
      "type": "Feature",
      "id": 125,
      "geometry": {
        "type": "Point",
        "coordinates": [
          -120.18388439599994,
          37.913792492000027
        ]
      },
      "properties": {
        "OBJECTID": 125,
        "type": "NODE",
        "bus": 24
      }
    },
    {
      "type": "Feature",
      "id": 126,
      "geometry": {
        "type": "Point",
        "coordinates": [
          -120.12800717499999,
          37.971288883000057
        ]
      },
      "properties": {
        "OBJECTID": 126,
        "type": "NODE",
        "bus": 25
      }
    },
    {
      "type": "Feature",
      "id": 127,
      "geometry": {
        "type": "Point",
        "coordinates": [
          -120.10457010299996,
          37.892217886000026
        ]
      },
      "properties": {
        "OBJECTID": 127,
        "type": "NODE",
        "bus": 26
      }
    },
    {
      "type": "Feature",
      "id": 128,
      "geometry": {
        "type": "Point",
        "coordinates": [
          -120.11479096299996,
          38.029099839000025
        ]
      },
      "properties": {
        "OBJECTID": 128,
        "type": "NODE",
        "bus": 28
      }
    },
    {
      "type": "Feature",
      "id": 129,
      "geometry": {
        "type": "Point",
        "coordinates": [
          -120.20198794399994,
          38.056803427000034
        ]
      },
      "properties": {
        "OBJECTID": 129,
        "type": "NODE",
        "bus": 29
      }
    },
    {
      "type": "Feature",
      "id": 130,
      "geometry": {
        "type": "Point",
        "coordinates": [
          -120.31922298599994,
          38.039930005000031
        ]
      },
      "properties": {
        "OBJECTID": 130,
        "type": "NODE",
        "bus": 30
      }
    }
  ]
}