{
  "type": "FeatureCollection",
  "features" : [{"type":"Feature","id":1,"geometry":{"type":"Point","coordinates":[-120.64289916099995,37.824988563000034]},"properties":{"OBJECTID":1,"type":"GEN","bus":1}},{"type":"Feature","id":2,"geometry":{"type":"Point","coordinates":[-120.59770076999996,37.682838753000055]},"properties":{"OBJECTID":2,"type":"SUBSTATION","bus":2}},{"type":"Feature","id":3,"geometry":{"type":"Point","coordinates":[-120.40083666999999,37.775783233000027]},"properties":{"OBJECTID":3,"type":"SUBSTATION","bus":13}},{"type":"Feature","id":4,"geometry":{"type":"Point","coordinates":[-120.13211649899995,37.818952996000064]},"properties":{"OBJECTID":4,"type":"SUBSTATION","bus":22}},{"type":"Feature","id":5,"geometry":{"type":"Point","coordinates":[-120.26822927199999,37.995703027000047]},"properties":{"OBJECTID":5,"type":"SUBSTATION","bus":23}},{"type":"Feature","id":6,"geometry":{"type":"Point","coordinates":[-120.11654159399995,38.029099839000025]},"properties":{"OBJECTID":6,"type":"SUBSTATION","bus":27}},{"type":"Feature","id":7,"geometry":{"type":"Point","coordinates":[-120.46612323399995,37.748785751000071]},"properties":{"OBJECTID":7,"type":"NODE","bus":3}},{"type":"Feature","id":8,"geometry":{"type":"Point","coordinates":[-120.38701088199997,37.775162298000055]},"properties":{"OBJECTID":8,"type":"NODE","bus":4}},{"type":"Feature","id":9,"geometry":{"type":"Point","coordinates":[-120.16982267499998,37.643878638000047]},"properties":{"OBJECTID":9,"type":"NODE","bus":5}},{"type":"Feature","id":10,"geometry":{"type":"Point","coordinates":[-120.17886235299994,37.741637709000031]},"properties":{"OBJECTID":10,"type":"NODE","bus":6}},{"type":"Feature","id":11,"geometry":{"type":"Point","coordinates":[-120.06625985299996,37.65732007400004]},"properties":{"OBJECTID":11,"type":"NODE","bus":7}},{"type":"Feature","id":12,"geometry":{"type":"Point","coordinates":[-120.03567364999998,37.688875787000029]},"properties":{"OBJECTID":12,"type":"NODE","bus":8}},{"type":"Feature","id":13,"geometry":{"type":"Point","coordinates":[-120.17716217299994,37.741879096000048]},"properties":{"OBJECTID":13,"type":"NODE","bus":9}},{"type":"Feature","id":14,"geometry":{"type":"Point","coordinates":[-120.17386037999995,37.741784647000031]},"properties":{"OBJECTID":14,"type":"NODE","bus":10}},{"type":"Feature","id":15,"geometry":{"type":"Point","coordinates":[-120.17569543299999,37.741778077000049]},"properties":{"OBJECTID":15,"type":"NODE","bus":11}},{"type":"Feature","id":16,"geometry":{"type":"Point","coordinates":[-120.39429598399994,37.775379592000036]},"properties":{"OBJECTID":16,"type":"NODE","bus":12}},{"type":"Feature","id":17,"geometry":{"type":"Point","coordinates":[-120.51005062599995,37.867057763000048]},"properties":{"OBJECTID":17,"type":"NODE","bus":14}},{"type":"Feature","id":18,"geometry":{"type":"Point","coordinates":[-120.40436206799995,37.878434193000032]},"properties":{"OBJECTID":18,"type":"NODE","bus":15}},{"type":"Feature","id":19,"geometry":{"type":"Point","coordinates":[-120.30742666299994,37.814674032000028]},"properties":{"OBJECTID":19,"type":"NODE","bus":16}},{"type":"Feature","id":20,"geometry":{"type":"Point","coordinates":[-120.22510779499999,37.838587622000034]},"properties":{"OBJECTID":20,"type":"NODE","bus":17}},{"type":"Feature","id":21,"geometry":{"type":"Point","coordinates":[-120.34554619399995,37.947757164000052]},"properties":{"OBJECTID":21,"type":"NODE","bus":18}},{"type":"Feature","id":22,"geometry":{"type":"Point","coordinates":[-120.26224750599999,37.948488109000039]},"properties":{"OBJECTID":22,"type":"NODE","bus":19}},{"type":"Feature","id":23,"geometry":{"type":"Point","coordinates":[-120.27194496799996,37.889446393000071]},"properties":{"OBJECTID":23,"type":"NODE","bus":20}},{"type":"Feature","id":24,"geometry":{"type":"Point","coordinates":[-120.15808286999999,37.800305826000056]},"properties":{"OBJECTID":24,"type":"NODE","bus":21}},{"type":"Feature","id":25,"geometry":{"type":"Point","coordinates":[-120.18388439599994,37.913792492000027]},"properties":{"OBJECTID":25,"type":"NODE","bus":24}},{"type":"Feature","id":26,"geometry":{"type":"Point","coordinates":[-120.12800717499999,37.971288883000057]},"properties":{"OBJECTID":26,"type":"NODE","bus":25}},{"type":"Feature","id":27,"geometry":{"type":"Point","coordinates":[-120.10457010299996,37.892217886000026]},"properties":{"OBJECTID":27,"type":"NODE","bus":26}},{"type":"Feature","id":28,"geometry":{"type":"Point","coordinates":[-120.11479096299996,38.029099839000025]},"properties":{"OBJECTID":28,"type":"NODE","bus":28}},{"type":"Feature","id":29,"geometry":{"type":"Point","coordinates":[-120.20198794399994,38.056803427000034]},"properties":{"OBJECTID":29,"type":"NODE","bus":29}},{"type":"Feature","id":30,"geometry":{"type":"Point","coordinates":[-120.31922298599994,38.039930005000031]},"properties":{"OBJECTID":30,"type":"NODE","bus":30}}]
}